{
  "type": "FeatureCollection",
  "features": [
    {
      "type": "Feature",
      "properties": {
        "norad_id": 36441,
        "name": "COSMOS 2251 DEB",
        "group": "cosmos-2251-debris",
        "lat": -52.023426011551834,
        "lon": -169.46198784481967,
        "alt_km": 615.0185063838271,
        "timestamp": "2025-12-13T05:42:57.969549+00:00",
        "meta_object_name": "COSMOS 2251 DEB",
        "meta_object_id": "1993-036BAQ",
        "meta_epoch": "2025-12-04T18:18:25.005024",
        "meta_mean_motion": 15.06603971,
        "meta_eccentricity": 0.01084902,
        "meta_inclination": 73.8352,
        "meta_ra_of_asc_node": 6.3404,
        "meta_arg_of_pericenter": 107.4279,
        "meta_mean_anomaly": 253.8807,
        "meta_ephemeris_type": 0,
        "meta_classification_type": "U",
        "meta_norad_cat_id": 36441,
        "meta_element_set_no": 999,
        "meta_rev_at_epoch": 86845,
        "meta_bstar": 0.00090032635,
        "meta_mean_motion_dot": 0.00015248,
        "meta_mean_motion_ddot": 0,
        "tle_line1": "1 36441U 93036BAQ 25338.76278941  .00015248  00000+0  90033-3 0  9991",
        "tle_line2": "2 36441  73.8352   6.3404 0108490 107.4279 253.8807 15.06603971868459"
      },
      "geometry": {
        "type": "Point",
        "coordinates": [
          -169.46198784481967,
          -52.023426011551834
        ]
      }
    },
    {
      "type": "Feature",
      "properties": {
        "norad_id": 36442,
        "name": "COSMOS 2251 DEB",
        "group": "cosmos-2251-debris",
        "lat": 51.073265417341474,
        "lon": 59.08475426879151,
        "alt_km": 474.20911488532147,
        "timestamp": "2025-12-13T05:42:57.969559+00:00",
        "meta_object_name": "COSMOS 2251 DEB",
        "meta_object_id": "1993-036BAR",
        "meta_epoch": "2025-12-08T10:48:39.469248",
        "meta_mean_motion": 15.27762018,
        "meta_eccentricity": 0.00088131,
        "meta_inclination": 73.9528,
        "meta_ra_of_asc_node": 48.4206,
        "meta_arg_of_pericenter": 323.6974,
        "meta_mean_anomaly": 36.3628,
        "meta_ephemeris_type": 0,
        "meta_classification_type": "U",
        "meta_norad_cat_id": 36442,
        "meta_element_set_no": 999,
        "meta_rev_at_epoch": 85850,
        "meta_bstar": 0.005804433,
        "meta_mean_motion_dot": 0.00161056,
        "meta_mean_motion_ddot": 0,
        "tle_line1": "1 36442U 93036BAR 25342.45045682  .00161056  00000+0  58044-2 0  9991",
        "tle_line2": "2 36442  73.9528  48.4206 0008813 323.6974  36.3628 15.27762018858506"
      },
      "geometry": {
        "type": "Point",
        "coordinates": [
          59.08475426879151,
          51.073265417341474
        ]
      }
    },
    {
      "type": "Feature",
      "properties": {
        "norad_id": 36451,
        "name": "COSMOS 2251 DEB",
        "group": "cosmos-2251-debris",
        "lat": 71.7590024620839,
        "lon": 93.49467965391915,
        "alt_km": 754.0937092410359,
        "timestamp": "2025-12-13T05:42:57.969569+00:00",
        "meta_object_name": "COSMOS 2251 DEB",
        "meta_object_id": "1993-036BBA",
        "meta_epoch": "2025-12-08T10:10:07.447584",
        "meta_mean_motion": 14.18724413,
        "meta_eccentricity": 0.01840749,
        "meta_inclination": 73.9539,
        "meta_ra_of_asc_node": 342.9701,
        "meta_arg_of_pericenter": 168.3937,
        "meta_mean_anomaly": 192.1542,
        "meta_ephemeris_type": 0,
        "meta_classification_type": "U",
        "meta_norad_cat_id": 36451,
        "meta_element_set_no": 999,
        "meta_rev_at_epoch": 84164,
        "meta_bstar": 0.0010726423,
        "meta_mean_motion_dot": 2.61e-05,
        "meta_mean_motion_ddot": 0,
        "tle_line1": "1 36451U 93036BBA 25342.42369731  .00002610  00000+0  10726-2 0  9997",
        "tle_line2": "2 36451  73.9539 342.9701 0184074 168.3937 192.1542 14.18724413841646"
      },
      "geometry": {
        "type": "Point",
        "coordinates": [
          93.49467965391915,
          71.7590024620839
        ]
      }
    },
    {
      "type": "Feature",
      "properties": {
        "norad_id": 36453,
        "name": "COSMOS 2251 DEB",
        "group": "cosmos-2251-debris",
        "lat": 52.136752388159465,
        "lon": 173.21616593114888,
        "alt_km": 662.0006963101287,
        "timestamp": "2025-12-13T05:42:57.969580+00:00",
        "meta_object_name": "COSMOS 2251 DEB",
        "meta_object_id": "1993-036BBC",
        "meta_epoch": "2025-12-10T21:57:51.896736",
        "meta_mean_motion": 14.52584412,
        "meta_eccentricity": 0.0070369,
        "meta_inclination": 73.9233,
        "meta_ra_of_asc_node": 155.8519,
        "meta_arg_of_pericenter": 59.6886,
        "meta_mean_anomaly": 92.8235,
        "meta_ephemeris_type": 0,
        "meta_classification_type": "U",
        "meta_norad_cat_id": 36453,
        "meta_element_set_no": 999,
        "meta_rev_at_epoch": 84441,
        "meta_bstar": 0.0012973,
        "meta_mean_motion_dot": 5.456e-05,
        "meta_mean_motion_ddot": 0,
        "tle_line1": "1 36453U 93036BBC 25344.91518399  .00005456  00000+0  12973-2 0  9998",
        "tle_line2": "2 36453  73.9233 155.8519 0070369  59.6886  92.8235 14.52584412844417"
      },
      "geometry": {
        "type": "Point",
        "coordinates": [
          173.21616593114888,
          52.136752388159465
        ]
      }
    },
    {
      "type": "Feature",
      "properties": {
        "norad_id": 36459,
        "name": "COSMOS 2251 DEB",
        "group": "cosmos-2251-debris",
        "lat": -67.244544630225,
        "lon": -44.093087820309925,
        "alt_km": 890.4113128755671,
        "timestamp": "2025-12-13T05:42:57.969590+00:00",
        "meta_object_name": "COSMOS 2251 DEB",
        "meta_object_id": "1993-036BBJ",
        "meta_epoch": "2025-12-08T08:14:17.711520",
        "meta_mean_motion": 14.26367403,
        "meta_eccentricity": 0.01135417,
        "meta_inclination": 74.048,
        "meta_ra_of_asc_node": 7.7381,
        "meta_arg_of_pericenter": 104.7075,
        "meta_mean_anomaly": 256.669,
        "meta_ephemeris_type": 0,
        "meta_classification_type": "U",
        "meta_norad_cat_id": 36459,
        "meta_element_set_no": 999,
        "meta_rev_at_epoch": 7819,
        "meta_bstar": 0.0018203568,
        "meta_mean_motion_dot": 4.661e-05,
        "meta_mean_motion_ddot": 0,
        "tle_line1": "1 36459U 93036BBJ 25342.34326055  .00004661  00000+0  18204-2 0  9995",
        "tle_line2": "2 36459  74.0480   7.7381 0113541 104.7075 256.6690 14.26367403 78192"
      },
      "geometry": {
        "type": "Point",
        "coordinates": [
          -44.093087820309925,
          -67.244544630225
        ]
      }
    },
    {
      "type": "Feature",
      "properties": {
        "norad_id": 36470,
        "name": "COSMOS 2251 DEB",
        "group": "cosmos-2251-debris",
        "lat": 61.05094650846106,
        "lon": 41.76564057407127,
        "alt_km": 524.0107997640225,
        "timestamp": "2025-12-13T05:42:57.969601+00:00",
        "meta_object_name": "COSMOS 2251 DEB",
        "meta_object_id": "1993-036BBV",
        "meta_epoch": "2025-12-11T11:47:48.523776",
        "meta_mean_motion": 15.07125789,
        "meta_eccentricity": 0.00234164,
        "meta_inclination": 73.8446,
        "meta_ra_of_asc_node": 257.0012,
        "meta_arg_of_pericenter": 85.44,
        "meta_mean_anomaly": 274.9463,
        "meta_ephemeris_type": 0,
        "meta_classification_type": "U",
        "meta_norad_cat_id": 36470,
        "meta_element_set_no": 999,
        "meta_rev_at_epoch": 66075,
        "meta_bstar": 0.0067772388,
        "meta_mean_motion_dot": 0.00103936,
        "meta_mean_motion_ddot": 0,
        "tle_line1": "1 36470U 93036BBV 25345.49153384  .00103936  00000+0  67772-2 0  9999",
        "tle_line2": "2 36470  73.8446 257.0012 0023416  85.4400 274.9463 15.07125789660752"
      },
      "geometry": {
        "type": "Point",
        "coordinates": [
          41.76564057407127,
          61.05094650846106
        ]
      }
    },
    {
      "type": "Feature",
      "properties": {
        "norad_id": 36528,
        "name": "COSMOS 2251 DEB",
        "group": "cosmos-2251-debris",
        "lat": 44.81331148466249,
        "lon": 160.85823170523932,
        "alt_km": 836.0254911451966,
        "timestamp": "2025-12-13T05:42:57.969611+00:00",
        "meta_object_name": "COSMOS 2251 DEB",
        "meta_object_id": "1993-036BCN",
        "meta_epoch": "2025-12-07T18:35:16.209888",
        "meta_mean_motion": 14.3059773,
        "meta_eccentricity": 0.00852102,
        "meta_inclination": 74.0157,
        "meta_ra_of_asc_node": 154.2656,
        "meta_arg_of_pericenter": 204.8135,
        "meta_mean_anomaly": 154.8907,
        "meta_ephemeris_type": 0,
        "meta_classification_type": "U",
        "meta_norad_cat_id": 36528,
        "meta_element_set_no": 999,
        "meta_rev_at_epoch": 64356,
        "meta_bstar": 0.0018462235,
        "meta_mean_motion_dot": 4.991e-05,
        "meta_mean_motion_ddot": 0,
        "tle_line1": "1 36528U 93036BCN 25341.77449317  .00004991  00000+0  18462-2 0  9997",
        "tle_line2": "2 36528  74.0157 154.2656 0085210 204.8135 154.8907 14.30597730643565"
      },
      "geometry": {
        "type": "Point",
        "coordinates": [
          160.85823170523932,
          44.81331148466249
        ]
      }
    }
  ]
}